[{"OBJECT_NAME":"HUANJING 1B (HJ-1B)","OBJECT_ID":"2008-041B","EPOCH":"2026-03-09T23:10:50.055168","MEAN_MOTION":14.83104288,"ECCENTRICITY":0.00371431,"INCLINATION":97.6488,"RA_OF_ASC_NODE":62.1531,"ARG_OF_PERICENTER":146.8853,"MEAN_ANOMALY":213.4697,"EPHEMERIS_TYPE":0,"CLASSIFICATION_TYPE":"U","NORAD_CAT_ID":33321,"ELEMENT_SET_NO":999,"REV_AT_EPOCH":94370,"BSTAR":0.00015921736,"MEAN_MOTION_DOT":1.261e-5,"MEAN_MOTION_DDOT":0},{"OBJECT_NAME":"ATLAS CENTAUR 2 DEB","OBJECT_ID":"1963-047L","EPOCH":"2026-03-07T14:04:26.573088","MEAN_MOTION":14.45082242,"ECCENTRICITY":0.023968,"INCLINATION":29.876,"RA_OF_ASC_NODE":254.7636,"ARG_OF_PERICENTER":95.5683,"MEAN_ANOMALY":267.2299,"EPHEMERIS_TYPE":0,"CLASSIFICATION_TYPE":"U","NORAD_CAT_ID":3741,"ELEMENT_SET_NO":999,"REV_AT_EPOCH":89808,"BSTAR":0.003129,"MEAN_MOTION_DOT":0.00015997,"MEAN_MOTION_DDOT":0}]
